CTC1_L_00347001-01
1 36586U 24881ZN  26070.40835648  .00000000  00000+0  00000-0 0  9993
2 36586  95.0000   0.0000 0000000   0.0000   0.0000 13.81096544    16
CTC1_L_00347001-02
1 36587U 22636BG  26070.40835648  .00000000  00000+0  00000-0 0  9990
2 36587  95.0000   0.0000 0000000   0.0000  90.0000 13.81096544    16
CTC1_L_00347001-03
1 36588U 24568XC  26070.40835648  .00000000  00000+0  00000-0 0  9997
2 36588  95.0000   0.0000 0000000   0.0000 180.0000 13.81096544    17
CTC1_L_00347001-04
1 36589U 26651QQ  26070.40835648  .00000000  00000+0  00000-0 0  9993
2 36589  95.0000   0.0000 0000000   0.0000 270.0000 13.81096544    18
CTC1_L_00347002-01
1 36590U 24873Y   26070.40835648  .00000000  00000+0  00000-0 0  9999
2 36590  95.0000  12.0000 0000000   0.0000  12.0000 13.81096544    17
CTC1_L_00347002-02
1 36591U 23985DD  26070.40835648  .00000000  00000+0  00000-0 0  9993
2 36591  95.0000  12.0000 0000000   0.0000 102.0000 13.81096544    18
CTC1_L_00347002-03
1 36592U 23655LA  26070.40835648  .00000000  00000+0  00000-0 0  9998
2 36592  95.0000  12.0000 0000000   0.0000 192.0000 13.81096544    18
CTC1_L_00347002-04
1 36593U 26020YC  26070.40835648  .00000000  00000+0  00000-0 0  9998
2 36593  95.0000  12.0000 0000000   0.0000 282.0000 13.81096544    19
CTC1_L_00347003-01
1 36594U 22700N   26070.40835648  .00000000  00000+0  00000-0 0  9990
2 36594  95.0000  24.0000 0000000   0.0000  24.0000 13.81096544    17
CTC1_L_00347003-02
1 36595U 25492NP  26070.40835648  .00000000  00000+0  00000-0 0  9992
2 36595  95.0000  24.0000 0000000   0.0000 114.0000 13.81096544    18
CTC1_L_00347003-03
1 36596U 24605XY  26070.40835648  .00000000  00000+0  00000-0 0  9998
2 36596  95.0000  24.0000 0000000   0.0000 204.0000 13.81096544    19
CTC1_L_00347003-04
1 36597U 23579JO  26070.40835648  .00000000  00000+0  00000-0 0  9998
2 36597  95.0000  24.0000 0000000   0.0000 294.0000 13.81096544    19
CTC1_L_00347004-01
1 36598U 26589CT  26070.40835648  .00000000  00000+0  00000-0 0  9993
2 36598  95.0000  36.0000 0000000   0.0000  36.0000 13.81096544    17
CTC1_L_00347004-02
1 36599U 26667C   26070.40835648  .00000000  00000+0  00000-0 0  9991
2 36599  95.0000  36.0000 0000000   0.0000 126.0000 13.81096544    18
CTC1_L_00347004-03
1 36600U 26606SJ  26070.40835648  .00000000  00000+0  00000-0 0  9997
2 36600  95.0000  36.0000 0000000   0.0000 216.0000 13.81096544    11
CTC1_L_00347004-04
1 36601U 22715AJ  26070.40835648  .00000000  00000+0  00000-0 0  9995
2 36601  95.0000  36.0000 0000000   0.0000 306.0000 13.81096544    12
CTC1_L_00347005-01
1 36602U 22881ZL  26070.40835648  .00000000  00000+0  00000-0 0  9990
2 36602  95.0000  48.0000 0000000   0.0000  48.0000 13.81096544    19
CTC1_L_00347005-02
1 36603U 23857QR  26070.40835648  .00000000  00000+0  00000-0 0  9995
2 36603  95.0000  48.0000 0000000   0.0000 138.0000 13.81096544    10
CTC1_L_00347005-03
1 36604U 25960CR  26070.40835648  .00000000  00000+0  00000-0 0  9993
2 36604  95.0000  48.0000 0000000   0.0000 228.0000 13.81096544    11
CTC1_L_00347005-04
1 36605U 26656EB  26070.40835648  .00000000  00000+0  00000-0 0  9997
2 36605  95.0000  48.0000 0000000   0.0000 318.0000 13.81096544    12
CTC1_L_00347006-01
1 36606U 24488SH  26070.40835648  .00000000  00000+0  00000-0 0  9999
2 36606  95.0000  60.0000 0000000   0.0000  60.0000 13.81096544    11
CTC1_L_00347006-02
1 36607U 22175QG  26070.40835648  .00000000  00000+0  00000-0 0  9991
2 36607  95.0000  60.0000 0000000   0.0000 150.0000 13.81096544    12
CTC1_L_00347006-03
1 36608U 23607FN  26070.40835648  .00000000  00000+0  00000-0 0  9993
2 36608  95.0000  60.0000 0000000   0.0000 240.0000 13.81096544    13
CTC1_L_00347006-04
1 36609U 23243GH  26070.40835648  .00000000  00000+0  00000-0 0  9990
2 36609  95.0000  60.0000 0000000   0.0000 330.0000 13.81096544    14
CTC1_L_00347007-01
1 36610U 25040XC  26070.40835648  .00000000  00000+0  00000-0 0  9999
2 36610  95.0000  72.0000 0000000   0.0000  72.0000 13.81096544    12
CTC1_L_00347007-02
1 36611U 24836CP  26070.40835648  .00000000  00000+0  00000-0 0  9992
2 36611  95.0000  72.0000 0000000   0.0000 162.0000 13.81096544    13
CTC1_L_00347007-03
1 36612U 23987WY  26070.40835648  .00000000  00000+0  00000-0 0  9999
2 36612  95.0000  72.0000 0000000   0.0000 252.0000 13.81096544    14
CTC1_L_00347007-04
1 36613U 22148WN  26070.40835648  .00000000  00000+0  00000-0 0  9998
2 36613  95.0000  72.0000 0000000   0.0000 342.0000 13.81096544    15
CTC1_L_00347008-01
1 36614U 24538SJ  26070.40835648  .00000000  00000+0  00000-0 0  9994
2 36614  95.0000  84.0000 0000000   0.0000  84.0000 13.81096544    12
CTC1_L_00347008-02
1 36615U 24633SB  26070.40835648  .00000000  00000+0  00000-0 0  9991
2 36615  95.0000  84.0000 0000000   0.0000 174.0000 13.81096544    13
CTC1_L_00347008-03
1 36616U 23289YJ  26070.40835648  .00000000  00000+0  00000-0 0  9998
2 36616  95.0000  84.0000 0000000   0.0000 264.0000 13.81096544    14
CTC1_L_00347008-04
1 36617U 25184IK  26070.40835648  .00000000  00000+0  00000-0 0  9995
2 36617  95.0000  84.0000 0000000   0.0000 354.0000 13.81096544    15
CTC1_L_00347009-01
1 36618U 25597TV  26070.40835648  .00000000  00000+0  00000-0 0  9994
2 36618  95.0000  96.0000 0000000   0.0000  96.0000 13.81096544    12
CTC1_L_00347009-02
1 36619U 25464MO  26070.40835648  .00000000  00000+0  00000-0 0  9998
2 36619  95.0000  96.0000 0000000   0.0000 186.0000 13.81096544    13
CTC1_L_00347009-03
1 36620U 25196GJ  26070.40835648  .00000000  00000+0  00000-0 0  9992
2 36620  95.0000  96.0000 0000000   0.0000 276.0000 13.81096544    15
CTC1_L_00347009-04
1 36621U 24036AN  26070.40835648  .00000000  00000+0  00000-0 0  9995
2 36621  95.0000  96.0000 0000000   0.0000   6.0000 13.81096544    17
CTC1_L_00347010-01
1 36622U 23481OB  26070.40835648  .00000000  00000+0  00000-0 0  9999
2 36622  95.0000 108.0000 0000000   0.0000 108.0000 13.81096544    15
CTC1_L_00347010-02
1 36623U 22133GW  26070.40835648  .00000000  00000+0  00000-0 0  9993
2 36623  95.0000 108.0000 0000000   0.0000 198.0000 13.81096544    15
CTC1_L_00347010-03
1 36624U 26482KC  26070.40835648  .00000000  00000+0  00000-0 0  9995
2 36624  95.0000 108.0000 0000000   0.0000 288.0000 13.81096544    16
CTC1_L_00347010-04
1 36625U 23645XU  26070.40835648  .00000000  00000+0  00000-0 0  9994
2 36625  95.0000 108.0000 0000000   0.0000  18.0000 13.81096544    18
CTC1_L_00347011-01
1 36626U 22941NW  26070.40835648  .00000000  00000+0  00000-0 0  9993
2 36626  95.0000 120.0000 0000000   0.0000 120.0000 13.81096544    17
CTC1_L_00347011-02
1 36627U 24028NI  26070.40835648  .00000000  00000+0  00000-0 0  9992
2 36627  95.0000 120.0000 0000000   0.0000 210.0000 13.81096544    18
CTC1_L_00347011-03
1 36628U 23383HW  26070.40835648  .00000000  00000+0  00000-0 0  9996
2 36628  95.0000 120.0000 0000000   0.0000 300.0000 13.81096544    19
CTC1_L_00347011-04
1 36629U 26636CY  26070.40835648  .00000000  00000+0  00000-0 0  9991
2 36629  95.0000 120.0000 0000000   0.0000  30.0000 13.81096544    10
CTC1_L_00347012-01
1 36630U 23938IQ  26070.40835648  .00000000  00000+0  00000-0 0  9995
2 36630  95.0000 132.0000 0000000   0.0000 132.0000 13.81096544    18
CTC1_L_00347012-02
1 36631U 26347WU  26070.40835648  .00000000  00000+0  00000-0 0  9993
2 36631  95.0000 132.0000 0000000   0.0000 222.0000 13.81096544    19
CTC1_L_00347012-03
1 36632U 23429SS  26070.40835648  .00000000  00000+0  00000-0 0  9992
2 36632  95.0000 132.0000 0000000   0.0000 312.0000 13.81096544    10
CTC1_L_00347012-04
1 36633U 24864CD  26070.40835648  .00000000  00000+0  00000-0 0  9997
2 36633  95.0000 132.0000 0000000   0.0000  42.0000 13.81096544    11
CTC1_L_00347013-01
1 36634U 22793ZQ  26070.40835648  .00000000  00000+0  00000-0 0  9997
2 36634  95.0000 144.0000 0000000   0.0000 144.0000 13.81096544    18
CTC1_L_00347013-02
1 36635U 23471CJ  26070.40835648  .00000000  00000+0  00000-0 0  9992
2 36635  95.0000 144.0000 0000000   0.0000 234.0000 13.81096544    19
CTC1_L_00347013-03
1 36636U 26725QR  26070.40835648  .00000000  00000+0  00000-0 0  9998
2 36636  95.0000 144.0000 0000000   0.0000 324.0000 13.81096544    10
CTC1_L_00347013-04
1 36637U 25009QD  26070.40835648  .00000000  00000+0  00000-0 0  9993
2 36637  95.0000 144.0000 0000000   0.0000  54.0000 13.81096544    11
CTC1_L_00347014-01
1 36638U 23439ZV  26070.40835648  .00000000  00000+0  00000-0 0  9999
2 36638  95.0000 156.0000 0000000   0.0000 156.0000 13.81096544    18
CTC1_L_00347014-02
1 36639U 22137HI  26070.40835648  .00000000  00000+0  00000-0 0  9994
2 36639  95.0000 156.0000 0000000   0.0000 246.0000 13.81096544    19
CTC1_L_00347014-03
1 36640U 26835HH  26070.40835648  .00000000  00000+0  00000-0 0  9995
2 36640  95.0000 156.0000 0000000   0.0000 336.0000 13.81096544    11
CTC1_L_00347014-04
1 36641U 22302ZC  26070.40835648  .00000000  00000+0  00000-0 0  9991
2 36641  95.0000 156.0000 0000000   0.0000  66.0000 13.81096544    12
CTC1_L_00347015-01
1 36642U 25365A   26070.40835648  .00000000  00000+0  00000-0 0  9994
2 36642  95.0000 168.0000 0000000   0.0000 168.0000 13.81096544    19
CTC1_L_00347015-02
1 36643U 25065YE  26070.40835648  .00000000  00000+0  00000-0 0  9992
2 36643  95.0000 168.0000 0000000   0.0000 258.0000 13.81096544    10
CTC1_L_00347015-03
1 36644U 23377GE  26070.40835648  .00000000  00000+0  00000-0 0  9997
2 36644  95.0000 168.0000 0000000   0.0000 348.0000 13.81096544    11
CTC1_L_00347015-04
1 36645U 22528YA  26070.40835648  .00000000  00000+0  00000-0 0  9995
2 36645  95.0000 168.0000 0000000   0.0000  78.0000 13.81096544    12
CTC1_L_00347016-01
1 36646U 26955LP  26070.40835648  .00000000  00000+0  00000-0 0  9994
2 36646  95.0000 180.0000 0000000   0.0000 180.0000 13.81096544    11
CTC1_L_00347016-02
1 36647U 24395MV  26070.40835648  .00000000  00000+0  00000-0 0  9991
2 36647  95.0000 180.0000 0000000   0.0000 270.0000 13.81096544    12
